*******************************************************************************
Ephemeris / WWW_USER Mon Mar 24 09:23:11 2025 Pasadena, USA      / Horizons    
*******************************************************************************
Target body name: (2017 UW51)                     {source: JPL#9}
Center body name: Earth (399)                     {source: DE441}
Center-site name: Mauna Kea
*******************************************************************************
Start time      : A.D. 2018-Dec-24 03:59:00.0000 UT      
Stop  time      : A.D. 2018-Dec-24 16:43:00.0000 UT      
Step-size       : 1 minutes
*******************************************************************************
Target pole/equ : undefined
Target radii    : undefined                                                    
Center geodetic : 204.5278, 19.8260847, 4.21024   {E-lon(deg),Lat(deg),Alt(km)}
Center cylindric: 204.5278, 6006.35451, 2151.0229 {E-lon(deg),Dxy(km),Dz(km)}
Center pole/equ : ITRF93                          {East-longitude positive}
Center radii    : 6378.137, 6378.137, 6356.752 km {Equator_a, b, pole_c}       
Target primary  : Sun
Vis. interferer : MOON (R_eq= 1737.400) km        {source: DE441}
Rel. light bend : Sun                             {source: DE441}
Rel. lght bnd GM: 1.3271E+11 km^3/s^2                                          
Small-body perts: Yes                             {source: SB441-N16}
Atmos refraction: NO (AIRLESS)
RA format       : HMS
Time format     : CAL 
Calendar mode   : Mixed Julian/Gregorian
RTS-only print  : NO       
EOP file        : eop.250321.p250617                                           
EOP coverage    : DATA-BASED 1962-JAN-20 TO 2025-MAR-21. PREDICTS-> 2025-JUN-16
Units conversion: 1 au= 149597870.700 km, c= 299792.458 km/s, 1 day= 86400.0 s 
Table cut-offs 1: Elevation (-90.0deg=NO ),Airmass (>38.000=NO), Daylight (YES)
Table cut-offs 2: Solar elongation (  0.0,180.0=NO ),Local Hour Angle( 0.0=NO )
Table cut-offs 3: RA/DEC angular rate (     0.0=NO )                           
*******************************************************************************
Initial IAU76/J2000 heliocentric ecliptic osculating elements (au, days, deg.):
  EPOCH=  2458075.5 ! 2017-Nov-18.00 (TDB)         Residual RMS= .20188        
   EC= .977323227404683    QR= 3.132710376610715   TP= 2458155.1551369466      
   OM= 241.7154477774366   W=  216.6888678209022   IN= 144.2025603349357       
  Equivalent ICRF heliocentric cartesian coordinates (au, au/d):
   X= 2.139353138138251E+00  Y= 2.375029509283225E+00  Z= 4.232007070438896E-01
  VX= 5.707101564767909E-03 VY=-6.350221743649190E-03 VZ=-1.041670648532765E-02
Asteroid physical parameters (km, seconds, rotational period in hours):        
   GM= n.a.                RAD= n.a.               ROTPER= n.a.                
   H= 15.3                 G= .150                 B-V= n.a.                   
                           ALBEDO= n.a.            STYP= n.a.                  
*******************************************************************************
 Date__(UT)__HR:MN     R.A._________(ICRF)_________DEC
******************************************************
$$SOE
 2018-Dec-24 03:59 C   21 31 06.133972 -46 44 07.31114
 2018-Dec-24 04:00 C   21 31 06.140090 -46 44 07.06794
 2018-Dec-24 04:01 C   21 31 06.146211 -46 44 06.82473
 2018-Dec-24 04:02 C   21 31 06.152333 -46 44 06.58149
 2018-Dec-24 04:03 C   21 31 06.158458 -46 44 06.33824
 2018-Dec-24 04:04 C   21 31 06.164585 -46 44 06.09497
 2018-Dec-24 04:05 C   21 31 06.170714 -46 44 05.85169
 2018-Dec-24 04:06 C   21 31 06.176845 -46 44 05.60839
 2018-Dec-24 04:07 C   21 31 06.182978 -46 44 05.36507
 2018-Dec-24 04:08 C   21 31 06.189114 -46 44 05.12173
 2018-Dec-24 04:09 C   21 31 06.195252 -46 44 04.87838
 2018-Dec-24 04:10 C   21 31 06.201392 -46 44 04.63501
 2018-Dec-24 04:11 C   21 31 06.207534 -46 44 04.39162
 2018-Dec-24 04:12 C   21 31 06.213678 -46 44 04.14822
 2018-Dec-24 04:13 C   21 31 06.219825 -46 44 03.90480
 2018-Dec-24 04:14 N   21 31 06.225974 -46 44 03.66137
 2018-Dec-24 04:15 N   21 31 06.232126 -46 44 03.41792
 2018-Dec-24 04:16 N   21 31 06.238279 -46 44 03.17445
 2018-Dec-24 04:17 N   21 31 06.244435 -46 44 02.93096
 2018-Dec-24 04:18 N   21 31 06.250593 -46 44 02.68746
 2018-Dec-24 04:19 N   21 31 06.256754 -46 44 02.44394
 2018-Dec-24 04:20 N   21 31 06.262917 -46 44 02.20041
 2018-Dec-24 04:21 N   21 31 06.269082 -46 44 01.95686
 2018-Dec-24 04:22 N   21 31 06.275249 -46 44 01.71330
 2018-Dec-24 04:23 N   21 31 06.281419 -46 44 01.46972
 2018-Dec-24 04:24 N   21 31 06.287591 -46 44 01.22612
 2018-Dec-24 04:25 N   21 31 06.293766 -46 44 00.98251
 2018-Dec-24 04:26 N   21 31 06.299943 -46 44 00.73888
 2018-Dec-24 04:27 N   21 31 06.306122 -46 44 00.49524
 2018-Dec-24 04:28 N   21 31 06.312304 -46 44 00.25158
 2018-Dec-24 04:29 N   21 31 06.318489 -46 44 00.00790
 2018-Dec-24 04:30 N   21 31 06.324675 -46 43 59.76421
 2018-Dec-24 04:31 N   21 31 06.330865 -46 43 59.52051
 2018-Dec-24 04:32 N   21 31 06.337056 -46 43 59.27679
 2018-Dec-24 04:33 N   21 31 06.343250 -46 43 59.03305
 2018-Dec-24 04:34 N   21 31 06.349447 -46 43 58.78930
 2018-Dec-24 04:35 N   21 31 06.355646 -46 43 58.54553
 2018-Dec-24 04:36 N   21 31 06.361847 -46 43 58.30175
 2018-Dec-24 04:37 N   21 31 06.368051 -46 43 58.05796
 2018-Dec-24 04:38 N   21 31 06.374258 -46 43 57.81414
 2018-Dec-24 04:39 N   21 31 06.380467 -46 43 57.57032
 2018-Dec-24 04:40 N   21 31 06.386679 -46 43 57.32648
 2018-Dec-24 04:41 A   21 31 06.392893 -46 43 57.08262
 2018-Dec-24 04:42 A   21 31 06.399110 -46 43 56.83875
 2018-Dec-24 04:43 A   21 31 06.405329 -46 43 56.59487
 2018-Dec-24 04:44 A   21 31 06.411551 -46 43 56.35097
 2018-Dec-24 04:45 A   21 31 06.417775 -46 43 56.10706
 2018-Dec-24 04:46 A   21 31 06.424002 -46 43 55.86313
 2018-Dec-24 04:47 A   21 31 06.430232 -46 43 55.61919
 2018-Dec-24 04:48 A   21 31 06.436464 -46 43 55.37523
 2018-Dec-24 04:49 A   21 31 06.442699 -46 43 55.13126
 2018-Dec-24 04:50 A   21 31 06.448936 -46 43 54.88728
 2018-Dec-24 04:51 A   21 31 06.455176 -46 43 54.64328
 2018-Dec-24 04:52 A   21 31 06.461419 -46 43 54.39927
 2018-Dec-24 04:53 A   21 31 06.467665 -46 43 54.15524
 2018-Dec-24 04:54 A   21 31 06.473913 -46 43 53.91120
 2018-Dec-24 04:55 A   21 31 06.480164 -46 43 53.66715
 2018-Dec-24 04:56 A   21 31 06.486417 -46 43 53.42308
 2018-Dec-24 04:57 A   21 31 06.492673 -46 43 53.17900
 2018-Dec-24 04:58 A   21 31 06.498932 -46 43 52.93491
 2018-Dec-24 04:59 A   21 31 06.505194 -46 43 52.69080
 2018-Dec-24 05:00 A   21 31 06.511458 -46 43 52.44668
 2018-Dec-24 05:01 A   21 31 06.517725 -46 43 52.20255
 2018-Dec-24 05:02 A   21 31 06.523995 -46 43 51.95840
 2018-Dec-24 05:03 A   21 31 06.530267 -46 43 51.71425
 2018-Dec-24 05:04 A   21 31 06.536543 -46 43 51.47007
 2018-Dec-24 05:05 A   21 31 06.542821 -46 43 51.22589
 2018-Dec-24 05:06 A   21 31 06.549101 -46 43 50.98169
 2018-Dec-24 05:07 A   21 31 06.555385 -46 43 50.73748
 2018-Dec-24 05:08  m  21 31 06.561671 -46 43 50.49326
 2018-Dec-24 05:09  m  21 31 06.567961 -46 43 50.24902
 2018-Dec-24 05:10  m  21 31 06.574253 -46 43 50.00477
 2018-Dec-24 05:11  m  21 31 06.580547 -46 43 49.76051
 2018-Dec-24 05:12  m  21 31 06.586845 -46 43 49.51624
 2018-Dec-24 05:13  m  21 31 06.593145 -46 43 49.27196
 2018-Dec-24 05:14  m  21 31 06.599449 -46 43 49.02766
 2018-Dec-24 05:15  m  21 31 06.605755 -46 43 48.78335
 2018-Dec-24 05:16  m  21 31 06.612064 -46 43 48.53903
 2018-Dec-24 05:17  m  21 31 06.618376 -46 43 48.29469
 2018-Dec-24 05:18  m  21 31 06.624691 -46 43 48.05035
 2018-Dec-24 05:19  m  21 31 06.631008 -46 43 47.80599
 2018-Dec-24 05:20  m  21 31 06.637329 -46 43 47.56163
 2018-Dec-24 05:21  m  21 31 06.643652 -46 43 47.31725
 2018-Dec-24 05:22  m  21 31 06.649979 -46 43 47.07285
 2018-Dec-24 05:23  m  21 31 06.656308 -46 43 46.82845
 2018-Dec-24 05:24  m  21 31 06.662640 -46 43 46.58404
 2018-Dec-24 05:25  m  21 31 06.668975 -46 43 46.33961
 2018-Dec-24 05:26  m  21 31 06.675313 -46 43 46.09518
 2018-Dec-24 05:27  m  21 31 06.681654 -46 43 45.85073
 2018-Dec-24 05:28  m  21 31 06.687998 -46 43 45.60627
 2018-Dec-24 05:29  m  21 31 06.694345 -46 43 45.36180
 2018-Dec-24 05:30  m  21 31 06.700695 -46 43 45.11732
 2018-Dec-24 05:31  m  21 31 06.707048 -46 43 44.87283
 2018-Dec-24 05:32  m  21 31 06.713404 -46 43 44.62833
 2018-Dec-24 05:33  m  21 31 06.719762 -46 43 44.38382
 2018-Dec-24 05:34  m  21 31 06.726124 -46 43 44.13929
 2018-Dec-24 05:35  m  21 31 06.732489 -46 43 43.89476
 2018-Dec-24 05:36  m  21 31 06.738857 -46 43 43.65022
 2018-Dec-24 05:37  m  21 31 06.745228 -46 43 43.40566
 2018-Dec-24 05:38  m  21 31 06.751602 -46 43 43.16110
 2018-Dec-24 05:39  m  21 31 06.757979 -46 43 42.91653
 2018-Dec-24 05:40  m  21 31 06.764359 -46 43 42.67194
 2018-Dec-24 05:41  m  21 31 06.770742 -46 43 42.42735
 2018-Dec-24 05:42  m  21 31 06.777128 -46 43 42.18274
 2018-Dec-24 05:43  m  21 31 06.783517 -46 43 41.93813
 2018-Dec-24 05:44  m  21 31 06.789909 -46 43 41.69351
 2018-Dec-24 05:45  m  21 31 06.796304 -46 43 41.44888
 2018-Dec-24 05:46  m  21 31 06.802703 -46 43 41.20424
 2018-Dec-24 05:47  m  21 31 06.809104 -46 43 40.95959
 2018-Dec-24 05:48  m  21 31 06.815509 -46 43 40.71492
 2018-Dec-24 05:49  m  21 31 06.821916 -46 43 40.47026
 2018-Dec-24 05:50  m  21 31 06.828327 -46 43 40.22558
 2018-Dec-24 05:51  m  21 31 06.834741 -46 43 39.98089
 2018-Dec-24 05:52  m  21 31 06.841158 -46 43 39.73619
 2018-Dec-24 05:53  m  21 31 06.847578 -46 43 39.49149
 2018-Dec-24 05:54  m  21 31 06.854001 -46 43 39.24678
 2018-Dec-24 05:55  m  21 31 06.860427 -46 43 39.00205
 2018-Dec-24 05:56  m  21 31 06.866857 -46 43 38.75732
 2018-Dec-24 05:57  m  21 31 06.873290 -46 43 38.51258
 2018-Dec-24 05:58  m  21 31 06.879725 -46 43 38.26784
 2018-Dec-24 05:59  m  21 31 06.886164 -46 43 38.02308
 2018-Dec-24 06:00  m  21 31 06.892607 -46 43 37.77832
 2018-Dec-24 06:01  m  21 31 06.899052 -46 43 37.53354
